NORAD_CAT_ID,OBJECT_NAME,OBJECT_TYPE,EPOCH,MEAN_MOTION,ECCENTRICITY,INCLINATION,RA_OF_ASC_NODE,ARG_OF_PERICENTER,MEAN_ANOMALY,BSTAR,MEAN_MOTION_DOT,MEAN_MOTION_DDOT,TLE_LINE0,TLE_LINE1,TLE_LINE2,SEMIMAJOR_AXIS,PERIOD,APOGEE,PERIGEE,DECAYED
52688.0,STARLINK-4032,PAYLOAD,2024-02-16 08:48:15,15.08839973,0.000133,53.2159,281.3145,89.5672,270.5473,8.832e-05,1.118e-05,0.0,0 STARLINK-4032,1 52688U 22053AJ  24047.36684324  .00001118  00000-0  88320-4 0  9990,2 52688  53.2159 281.3145 0001330  89.5672 270.5473 15.08839973 97179,6917.88,95.438,540.666,538.825,0.0
52688.0,STARLINK-4032,PAYLOAD,2024-02-16 21:31:19,15.08848749,0.0001306,53.215,278.9358,87.4733,272.6409,0.00018705,2.691e-05,0.0,0 STARLINK-4032,1 52688U 22053AJ  24047.89675890  .00002691  00000-0  18705-3 0  9992,2 52688  53.2150 278.9358 0001306  87.4733 272.6409 15.08848749 97629,6917.854,95.437,540.622,538.815,0.0
52688.0,STARLINK-4032,PAYLOAD,2024-02-16 23:06:43,15.08851096,0.0001373,53.2156,278.639,88.0611,272.0538,0.00024736,3.652e-05,0.0,0 STARLINK-4032,1 52688U 22053AJ  24047.96299804  .00003652  00000-0  24736-3 0  9996,2 52688  53.2156 278.6390 0001373  88.0611 272.0538 15.08851096 97260,6917.846,95.437,540.661,538.762,0.0
52688.0,STARLINK-4032,PAYLOAD,2024-02-17 08:39:02,15.08843104,0.000144,53.2169,276.8538,82.0161,278.0995,7.7101e-05,9.39e-06,0.0,0 STARLINK-4032,1 52688U 22053AJ  24048.36044090  .00000939  00000-0  77101-4 0  9996,2 52688  53.2169 276.8538 0001440  82.0161 278.0995 15.08843104 97328,6917.871,95.437,540.732,538.74,0.0
52688.0,STARLINK-4032,PAYLOAD,2024-02-17 19:46:44,15.0883643,0.0001444,53.2158,274.7714,95.4009,264.7148,3.3093e-05,2.39e-06,0.0,0 STARLINK-4032,1 52688U 22053AJ  24048.82412730  .00000239  00000-0  33093-4 0  9992,2 52688  53.2158 274.7714 0001444  95.4009 264.7148 15.08836430 97395,6917.891,95.438,540.755,538.757,0.0
52688.0,STARLINK-4032,PAYLOAD,2024-02-17 21:22:07,15.08836499,0.0001504,53.2169,274.4739,88.1973,271.9191,2.3105e-05,8e-07,0.0,0 STARLINK-4032,1 52688U 22053AJ  24048.89036736  .00000080  00000-0  23105-4 0  9994,2 52688  53.2169 274.4739 0001504  88.1973 271.9191 15.08836499 97772,6917.891,95.438,540.797,538.716,0.0
52688.0,STARLINK-4032,PAYLOAD,2024-02-18 08:29:49,15.088413,0.0001444,53.2161,272.3936,91.0293,269.0865,0.00010418,1.371e-05,0.0,0 STARLINK-4032,1 52688U 22053AJ  24049.35404627  .00001371  00000-0  10418-3 0  9990,2 52688  53.2161 272.3936 0001444  91.0293 269.0865 15.08841300 97842,6917.876,95.437,540.74,538.742,0.0
52688.0,STARLINK-4032,PAYLOAD,2024-02-18 19:37:31,15.08848921,0.0001334,53.2167,270.3113,92.457,267.6574,0.00018122,2.598e-05,0.0,0 STARLINK-4032,1 52688U 22053AJ  24049.81772123  .00002598  00000-0  18122-3 0  9992,2 52688  53.2167 270.3113 0001334  92.4570 267.6574 15.08848921 97548,6917.853,95.437,540.641,538.795,0.0
52688.0,STARLINK-4032,PAYLOAD,2024-02-18 21:12:54,15.08854033,0.0001466,53.2166,270.0142,91.5377,268.5783,6.3918e-05,7.3e-06,0.0,0 STARLINK-4032,1 52688U 22053AJ  24049.88395874  .00000730  00000-0  63918-4 0  9993,2 52688  53.2166 270.0142 0001466  91.5377 268.5783 15.08854033 97922,6917.837,95.437,540.717,538.688,0.0
52688.0,STARLINK-4032,PAYLOAD,2024-02-19 19:28:18,15.08835754,0.0001423,53.2156,265.8504,90.0218,270.0937,9.9214e-05,1.291e-05,0.0,0 STARLINK-4032,1 52688U 22053AJ  24050.81132889  .00001291  00000-0  99214-4 0  9994,2 52688  53.2156 265.8504 0001423  90.0218 270.0937 15.08835754 97698,6917.893,95.438,540.743,538.774,0.0
52688.0,STARLINK-4032,PAYLOAD,2024-02-19 21:03:41,15.08836005,0.0001425,53.2156,265.5528,90.8312,269.2843,9e-05,1.145e-05,0.0,0 STARLINK-4032,1 52688U 22053AJ  24050.87756832  .00001145  00000-0  90000-4 0  9992,2 52688  53.2156 265.5528 0001425  90.8312 269.2843 15.08836005 98075,6917.893,95.438,540.743,538.772,0.0
52688.0,STARLINK-4032,PAYLOAD,2024-02-20 00:14:28,15.08836676,0.0001492,53.2162,264.9587,90.7749,269.3414,4.6312e-05,4.49e-06,0.0,0 STARLINK-4032,1 52688U 22053AJ  24051.01004831  .00000449  00000-0  46312-4 0  9997,2 52688  53.2162 264.9587 0001492  90.7749 269.3414 15.08836676 98098,6917.891,95.438,540.788,538.723,0.0
52688.0,STARLINK-4032,PAYLOAD,2024-02-20 20:54:28,15.08842558,0.0001297,53.2158,261.0946,90.0736,270.0405,2.1543e-05,5.5e-07,0.0,0 STARLINK-4032,1 52688U 22053AJ  24051.87116822  .00000055  00000-0  21543-4 0  9997,2 52688  53.2158 261.0946 0001297  90.0736 270.0405 15.08842558 98222,6917.873,95.437,540.635,538.84,0.0
52688.0,STARLINK-4032,PAYLOAD,2024-02-21 12:48:20,15.08836606,0.0001367,53.2162,258.1216,95.8499,264.2649,0.00011139,1.485e-05,0.0,0 STARLINK-4032,1 52688U 22053AJ  24052.53357061  .00001485  00000-0  11139-3 0  9990,2 52688  53.2162 258.1216 0001367  95.8499 264.2649 15.08836606 98324,6917.891,95.438,540.701,538.81,0.0
52688.0,STARLINK-4032,PAYLOAD,2024-02-21 20:45:16,15.08836892,0.000136,53.2162,256.6346,95.2925,264.8222,0.00010162,1.33e-05,0.0,0 STARLINK-4032,1 52688U 22053AJ  24052.86477149  .00001330  00000-0  10162-3 0  9990,2 52688  53.2162 256.6346 0001360  95.2925 264.8222 15.08836892 98007,6917.89,95.438,540.696,538.814,0.0
52688.0,STARLINK-4032,PAYLOAD,2024-02-22 12:39:07,15.08837791,0.0001361,53.2162,253.6611,94.7699,265.3448,0.00012372,1.682e-05,0.0,0 STARLINK-4032,1 52688U 22053AJ  24053.52717193  .00001682  00000-0  12372-3 0  9995,2 52688  53.2162 253.6611 0001361  94.7699 265.3448 15.08837791 98478,6917.887,95.438,540.694,538.811,0.0
52688.0,STARLINK-4032,PAYLOAD,2024-02-22 20:36:03,15.08840995,0.0001351,53.2161,252.1741,93.8872,266.2275,8.9694e-05,1.14e-05,0.0,0 STARLINK-4032,1 52688U 22053AJ  24053.85837077  .00001140  00000-0  89694-4 0  9996,2 52688  53.2161 252.1741 0001351  93.8872 266.2275 15.08840995 98521,6917.877,95.437,540.677,538.808,0.0
52688.0,STARLINK-4032,PAYLOAD,2024-02-22 23:46:49,15.08841331,0.0001352,53.216,251.5793,93.4939,266.6208,8.7759e-05,1.109e-05,0.0,0 STARLINK-4032,1 52688U 22053AJ  24053.99085051  .00001109  00000-0  87759-4 0  9993,2 52688  53.2160 251.5793 0001352  93.4939 266.6208 15.08841331 98177,6917.876,95.437,540.677,538.806,0.0
52688.0,STARLINK-4032,PAYLOAD,2024-02-23 06:08:21,15.08842546,0.0001349,53.216,250.3894,88.2256,271.889,8.3133e-05,1.035e-05,0.0,0 STARLINK-4032,1 52688U 22053AJ  24054.25581003  .00001035  00000-0  83133-4 0  9991,2 52688  53.2160 250.3894 0001349  88.2256 271.8890 15.08842546 98585,6917.873,95.437,540.671,538.804,0.0
52688.0,STARLINK-4032,PAYLOAD,2024-02-23 20:26:50,15.08839981,0.0001377,53.2158,247.7128,87.2711,272.8439,6.0652e-05,6.77e-06,0.0,0 STARLINK-4032,1 52688U 22053AJ  24054.85197295  .00000677  00000-0  60652-4 0  9995,2 52688  53.2158 247.7128 0001377  87.2711 272.8439 15.08839981 98677,6917.88,95.438,540.698,538.793,0.0
52688.0,STARLINK-4032,PAYLOAD,2024-02-24 12:20:41,15.08840761,0.0001467,53.2161,244.7389,86.667,273.449,7.2885e-05,8.72e-06,0.0,0 STARLINK-4032,1 52688U 22053AJ  24055.51437303  .00000872  00000-0  72885-4 0  9994,2 52688  53.2161 244.7389 0001467  86.6670 273.4490 15.08840761 98407,6917.878,95.438,540.758,538.728,0.0
52688.0,STARLINK-4032,PAYLOAD,2024-02-24 18:42:14,15.0884388,0.0001433,53.2158,243.5495,86.626,273.4896,9.4902e-05,1.223e-05,0.0,0 STARLINK-4032,1 52688U 22053AJ  24055.77933031  .00001223  00000-0  94902-4 0  9996,2 52688  53.2158 243.5495 0001433  86.6260 273.4896 15.08843880 98816,6917.869,95.437,540.725,538.742,0.0
52688.0,STARLINK-4032,PAYLOAD,2024-02-25 05:49:56,15.08834978,0.0001441,53.2152,241.4672,91.8494,268.2663,0.00027044,4.018e-05,0.0,0 STARLINK-4032,1 52688U 22053AJ  24056.24301200  .00004018  00000-0  27044-3 0  9993,2 52688  53.2152 241.4672 0001441  91.8494 268.2663 15.08834978 98889,6917.896,95.438,540.758,538.764,0.0
52688.0,STARLINK-4032,PAYLOAD,2024-02-25 18:33:00,15.08849753,0.0001344,53.2151,239.0888,88.1481,271.9665,0.00016508,2.341e-05,0.0,0 STARLINK-4032,1 52688U 22053AJ  24056.77292217  .00002341  00000-0  16508-3 0  9998,2 52688  53.2151 239.0888 0001344  88.1481 271.9665 15.08849753 98595,6917.851,95.437,540.645,538.786,0.0
52688.0,STARLINK-4032,PAYLOAD,2024-02-25 21:43:46,15.08853622,0.0001396,53.215,238.4933,90.1549,269.9603,0.00018294,2.626e-05,0.0,0 STARLINK-4032,1 52688U 22053AJ  24056.90539907  .00002626  00000-0  18294-3 0  9993,2 52688  53.2150 238.4933 0001396  90.1549 269.9603 15.08853622 98985,6917.839,95.437,540.669,538.738,0.0
52688.0,STARLINK-4032,PAYLOAD,2024-02-26 12:02:16,15.08835588,0.0001239,53.2146,235.8171,79.8055,280.3077,3.2038e-05,2.22e-06,0.0,0 STARLINK-4032,1 52688U 22053AJ  24057.50157489  .00000222  00000-0  32038-4 0  9994,2 52688  53.2146 235.8171 0001239  79.8055 280.3077 15.08835588 98700,6917.894,95.438,540.616,538.902,0.0
52688.0,STARLINK-4032,PAYLOAD,2024-02-26 21:34:34,15.0883927,0.0001337,53.2153,234.0318,97.9019,262.2125,1.1451e-05,-1.06e-06,0.0,0 STARLINK-4032,1 52688U 22053AJ  24057.89901087 -.00000106  00000-0  11451-4 0  9995,2 52688  53.2153 234.0318 0001337  97.9019 262.2125 15.08839270 99135,6917.883,95.438,540.673,538.823,0.0
52688.0,STARLINK-4032,PAYLOAD,2024-02-27 11:53:02,15.08837456,0.00014,53.2156,231.3553,100.2739,259.8411,-4.5682e-06,-3.61e-06,0.0,0 STARLINK-4032,1 52688U 22053AJ  24058.49517282 -.00000361  00000-0 -45682-5 0  9990,2 52688  53.2156 231.3553 0001400 100.2739 259.8411 15.08837456 99221,6917.888,95.438,540.722,538.785,0.0
52688.0,STARLINK-4032,PAYLOAD,2024-02-27 18:14:35,15.08841941,0.0001356,53.2156,230.1667,92.7696,267.3451,8.5515e-05,1.073e-05,0.0,0 STARLINK-4032,1 52688U 22053AJ  24058.76013126  .00001073  00000-0  85515-4 0  9995,2 52688  53.2156 230.1667 0001356  92.7696 267.3451 15.08841941 98895,6917.874,95.437,540.678,538.801,0.0
52688.0,STARLINK-4032,PAYLOAD,2024-02-27 21:25:21,15.0884484,0.0001383,53.2153,229.5704,91.003,269.1121,0.00010075,1.316e-05,0.0,0 STARLINK-4032,1 52688U 22053AJ  24058.89260986  .00001316  00000-0  10075-3 0  9995,2 52688  53.2153 229.5704 0001383  91.0030 269.1121 15.08844840 99289,6917.866,95.437,540.687,538.774,0.0
